    eccentricity => '0.0004387',
    inclination => '67.0562'
  },
  UARS => {
    orbit => '56073',
    elset => '492',
    argperigee => '115.432',
    epoch => '1347.11079891',
    bstar => '0.00025006',
    number => '91063',
    raan => '340.3497',
    mm1 => '2.97e-05',
    meanmotion => '15.01009631',
    mm2 => '0',
    id => '21701',
    meananomaly => '244.7278',
    eccentricity => '0.0005433',
    inclination => '56.984'
  },
  'DO-17' => {
    orbit => '62082',
    elset => '628',
    argperigee => '45.7437',
    epoch => '1347.77124615',
    bstar => '0.00036563',
    number => '90005',
    raan => '52.6799',
    mm1 => '9.26e-06',
    meanmotion => '14.31295649',
    mm2 => '0',
    id => '20440',
    meananomaly => '314.4753',
    eccentricity => '0.0012385',
    inclination => '98.3959'
  },
  JAWSAT => {
    orbit => '693',
    elset => '32',
    argperigee => '55.7126',
    epoch => '75.52219673',
    bstar => '0.00029735',
    number => '4',
    raan => '280.8828',
    mm1 => '7.8e-06',
    meanmotion => '14.34110882',
    mm2 => '0',
    meananomaly => '304.7691',
    id => '26065',
    inclination => '100.2316',
    eccentricity => '0.003852'
  },
  'KO-23' => {
    orbit => '43865',
    elset => '109',
    argperigee => '192.1222',
    epoch => '1346.92053105',
    bstar => '0.0001',
    number => '92052',
    raan => '311.7606',
    mm1 => '-3.7e-07',
    meanmotion => '12.86380095',
    mm2 => '0',
    id => '22077',
    meananomaly => '167.9672',
    eccentricity => '0.0005196',
    inclination => '66.0872'
  },
  'KO-25' => {
    orbit => '39636',
    elset => '99',
    argperigee => '75.767',
    epoch => '1347.22876464',
    bstar => '0.0002728',
    number => '93061',
    raan => '28.9429',
    mm1 => '6.52e-06',
    meanmotion => '14.29179149',
    mm2 => '0',
    id => '22828',
    meananomaly => '284.4722',
    eccentricity => '0.0010889',
    inclination => '98.3266'
  },
  'SAUDISAT-1A' => {
    orbit => '6540',
    elset => '218',
    argperigee => '306.6992',
    epoch => '1347.79284312',
    bstar => '0.00072038',
    number => '57',
    raan => '276.9415',
    mm1 => '5.016e-05',
    meanmotion => '14.76596265',
    mm2 => '0',
    id => '26545',
    meananomaly => '52.9436',
    eccentricity => '0.0051238',
    inclination => '64.561'
  }
);
1;
